#aV2007  2 20  0  0   .00000000      96 DD+AD WGS84 FIT  NGA
## 1415 172800.00000000   900.00000000 54151  .0000000000000
+   30     1  2  3  4  5  6  7  8  9 10 11 12 13 14 16 17 18
+         19 20 21 22 23 24 25 26 27 28 29 30 31  0  0  0  0
+          0  0  0  0  0  0  0  0  0  0  0  0  0  0  0  0  0
+          0  0  0  0  0  0  0  0  0  0  0  0  0  0  0  0  0
+          0  0  0  0  0  0  0  0  0  0  0  0  0  0  0  0  0
++         0  0  0  0  0  0  0  0  0  0  0  0  0  0  0  0  0
++         0  0  0  0  0  0  0  0  0  0  0  0  0  0  0  0  0
++         0  0  0  0  0  0  0  0  0  0  0  0  0  0  0  0  0
++         0  0  0  0  0  0  0  0  0  0  0  0  0  0  0  0  0
++         0  0  0  0  0  0  0  0  0  0  0  0  0  0  0  0  0
%c cc cc ccc ccc cccc cccc cccc cccc ccccc ccccc ccccc ccccc
%c cc cc ccc ccc cccc cccc cccc cccc ccccc ccccc ccccc ccccc
%f  0.0000000  0.000000000  0.00000000000  0.000000000000000
%f  0.0000000  0.000000000  0.00000000000  0.000000000000000
%i    0    0    0    0      0      0      0      0         0
%i    0    0    0    0      0      0      0      0         0
/*      NGA, ST. LOUIS,MO.                                  
/*   EPHEMERIS COMPUTED FROM  3 DAYS OF DATA                
/* CCCCCCCCCCCCCCCCCCCCCCCCCCCCCCCCCCCCCCCCCCCCCCCCCCCCCCCCC
/* CCCCCCCCCCCCCCCCCCCCCCCCCCCCCCCCCCCCCCCCCCCCCCCCCCCCCCCCC
*  2007  2 20  9 15   .00000000                                                 
P  1  13557.643255  -7483.781259 -21361.878513    108.962342                    
V  1   2359.438906  27449.584222  -8098.036804       .024923                    
P  2 -22709.029696  12772.211789  -4623.683742     83.950760                    
V  2   2501.412014  -6077.245002 -30874.908493       .033263                    
P  3  12813.573261 -11607.140750  19881.524004     16.623751                    
V  3   6846.077808  25033.682698  10427.480470       .057893                    
P  4 -21636.134359   1635.504410 -15623.978370      4.764377                    
V  4  14781.483185 -13052.150450 -21565.501770       .018714                    
P  5   1047.116412  16556.513257 -20999.732943     38.022735                    
V  5 -25036.279877  -7713.646370  -7261.487626       .050754                    
P  6   6667.453856  25420.659483   3827.639930     40.712105                    
V  6  -2912.822223   5149.489972 -30671.531988       .255249                    
P  7   9652.760983  23692.335848   7318.641395    409.646228                    
V  7  -1817.214397   9363.478121 -29354.967484      -.125548                    
P  8 -15126.311918  -6736.504813  20748.555965    -97.373037                    
V  8  21651.360763 -15226.333552  10357.601352      -.012886                    
P  9 -12062.071845  20475.117925 -12197.199760     58.375158                    
V  9 -12877.479523   7379.680156  26618.228240       .016779                    
P 10 -18861.543033   4883.289290  18090.131404     97.744983                    
V 10 -20361.836627 -10861.240061 -17872.606099       .005118                    
P 11   8403.468955 -22180.114308 -11769.272408      7.810388                    
V 11  13530.005419  -7868.056894  24995.289776       .012723                    
P 12  -1363.127132  15628.640791 -21329.569009    -49.327871                    
V 12 -25283.004099 -10388.397641  -5923.232900       .030812                    
P 13  -6612.994394 -24725.200421   7097.289573    145.472597                    
V 13    913.305790  -9198.702404 -30747.303386       .039980                    
P 14  14113.998600  10566.906723 -19803.342974      8.881405                    
V 14   1530.410875  25203.937198  14413.605246       .013830                    
P 16  22701.600166   -399.899019  13972.357895    124.026011                    
V 16  15171.061477   9033.254707 -24406.673890       .035917                    
P 17 -14683.715117 -11199.208959 -19132.196972     78.087626                    
V 17  -1320.765165 -24256.688629  15093.821749      -.013545                    
P 18  17623.816532  17044.340239  10746.380326   -253.605624                    
V 18 -13029.087613  -3736.293583  27316.860992       .002307                    
P 19   9063.038145 -20477.078643  14302.537973      6.827447                    
V 19   3120.317409  17912.715738  23924.341357       .040826                    
P 20   -773.570779 -16447.009657 -20945.584361    -22.462963                    
V 20  24607.128452   9563.054708  -8412.953999      -.001698                    
P 21   9244.109709  12712.075894  21509.807827     71.732974                    
V 21 -22501.408962  15217.446406    119.994347       .009488                    
P 22  23856.691238  11694.469681   -180.891004    168.398988                    
V 22   -996.959671   2941.657981  31550.665570       .020826                    
P 23   -153.637297 -26152.753345  -4072.907638    150.831488                    
V 23   3187.221508   4767.388174 -31530.322359       .017366                    
P 24  -8701.604436  19476.842917  16228.474983     78.902642                    
V 24 -17734.776066   9661.990922 -21059.939598       .031627                    
P 25  21170.000996 -15757.772951  -3391.989304    337.118892                    
V 25  -1698.328543   5250.767985 -31184.870248      -.178192                    
P 26  -8736.542937  18957.500124  15645.198581    -52.238155                    
V 26  -3423.007206 -20607.825916  23020.596227      -.186409                    
P 27  -7311.873000 -13908.699044  22035.527675     95.157328                    
V 27  20568.847472 -16689.975303  -4082.299212       .021672                    
P 28 -22696.952627 -13649.283568   4092.325315      6.950667                    
V 28   5322.956747   -197.143725  30987.440633      -.008536                    
P 29 -10855.885152  15118.623871  19023.404004    353.627758                    
V 29  -3861.587113 -23463.177413  16979.622423       .089855                    
P 30  11037.122668  17513.407223 -17005.676650     25.905495                    
V 30 -20251.722803  -5930.386789 -19491.904686       .010775                    
P 31  22087.448071  -4291.882314 -13956.132573      9.863068                    
V 31 -13164.236439  12529.620963 -24278.265488       .034898                    
EOF
